NORAD_CAT_ID,OBJECT_NAME,OBJECT_TYPE,EPOCH,MEAN_MOTION,ECCENTRICITY,INCLINATION,RA_OF_ASC_NODE,ARG_OF_PERICENTER,MEAN_ANOMALY,BSTAR,MEAN_MOTION_DOT,MEAN_MOTION_DDOT,TLE_LINE0,TLE_LINE1,TLE_LINE2,SEMIMAJOR_AXIS,PERIOD,APOGEE,PERIGEE,DECAYED
56469.0,STARLINK-5518,PAYLOAD,2023-09-23 14:00:01,14.99304198,0.0003355,69.9998,229.1682,272.8572,132.9907,-0.0024505,-0.00029954,0.0,0 STARLINK-5518,1 56469U 23064X   23266.58334491 -.00029954  00000-0 -24505-2 0  9990,2 56469  69.9998 229.1682 0003355 272.8572 132.9907 14.99304198 21564,6947.182,96.045,571.378,566.716,0.0
56469.0,STARLINK-5518,PAYLOAD,2023-09-23 22:00:01,14.99309505,0.0003385,70.0001,228.3266,268.3283,136.2189,0.0012785,0.00015588,0.0,0 STARLINK-5518,1 56469U 23064X   23266.91668981  .00015588  00000-0  12785-2 0  9994,2 56469  70.0001 228.3266 0003385 268.3283 136.2189 14.99309505 21615,6947.166,96.044,571.382,566.679,0.0
56469.0,STARLINK-5518,PAYLOAD,2023-09-24 14:00:01,14.99302389,0.0003328,69.9999,226.6432,269.4105,132.3971,-0.0016798,-0.00020589,0.0,0 STARLINK-5518,1 56469U 23064X   23267.58334491 -.00020589  00000-0 -16798-2 0  9991,2 56469  69.9999 226.6432 0003328 269.4105 132.3971 14.99302389 21716,6947.187,96.045,571.365,566.74,0.0
56469.0,STARLINK-5518,PAYLOAD,2023-09-24 22:00:00,14.9931504,0.000338,70.0002,225.8016,265.9094,134.5321,0.00061977,7.501e-05,0.0,0 STARLINK-5518,1 56469U 23064X   23267.91667824  .00007501  00000-0  61977-3 0  9994,2 56469  70.0002 225.8016 0003380 265.9094 134.5321 14.99315040  5891,6947.148,96.044,571.362,566.665,0.0
56469.0,STARLINK-5518,PAYLOAD,2023-09-25 06:00:00,14.99303563,0.0003323,70.0001,224.9599,272.7632,126.351,-0.0010234,-0.00012595,0.0,0 STARLINK-5518,1 56469U 23064X   23268.25001157 -.00012595  00000-0 -10234-2 0  9993,2 56469  70.0001 224.9599 0003323 272.7632 126.3510 14.99303563 21813,6947.184,96.045,571.357,566.74,0.0
56469.0,STARLINK-5518,PAYLOAD,2023-09-25 14:00:01,14.99290264,0.0003253,70.0,224.1182,272.1248,125.7062,-0.00030282,-3.796e-05,0.0,0 STARLINK-5518,1 56469U 23064X   23268.58335648 -.00003796  00000-0 -30282-3 0  9993,2 56469  70.0000 224.1182 0003253 272.1248 125.7062 14.99290264  5787,6947.225,96.045,571.35,566.83,0.0
56469.0,STARLINK-5518,PAYLOAD,2023-09-25 22:00:00,14.99309553,0.0003264,70.0003,223.2767,268.9831,127.4039,0.00097476,0.00011856,0.0,0 STARLINK-5518,1 56469U 23064X   23268.91667824  .00011856  00000-0  97476-3 0  9996,2 56469  70.0003 223.2767 0003264 268.9831 127.4039 14.99309553  5833,6947.165,96.044,571.298,566.763,0.0
56469.0,STARLINK-5518,PAYLOAD,2023-09-26 07:26:46,14.99276096,0.0002863,70.0011,222.2859,250.8574,109.2275,0.0002782,3.31e-05,0.0,0 STARLINK-5518,1 56469U 23064X   23269.31025800  .00003310  00000-0  27820-3 0  9995,2 56469  70.0011 222.2859 0002863 250.8574 109.2275 14.99276096 21979,6947.269,96.046,571.123,567.145,0.0
56469.0,STARLINK-5518,PAYLOAD,2023-09-26 21:51:24,14.99304043,0.0002672,70.0008,220.769,254.0053,106.0812,-2.5712e-06,-1.25e-06,0.0,0 STARLINK-5518,1 56469U 23064X   23269.91069804 -.00000125  00000-0 -25712-5 0  9996,2 56469  70.0008 220.7690 0002672 254.0053 106.0812 14.99304043 21704,6947.182,96.045,570.904,567.191,0.0
56469.0,STARLINK-5518,PAYLOAD,2023-09-27 02:39:37,14.99302058,0.000267,70.0007,220.2625,257.5694,102.5167,2.6789e-05,2.34e-06,0.0,0 STARLINK-5518,1 56469U 23064X   23270.11084872  .00000234  00000-0  26789-4 0  9995,2 56469  70.0007 220.2625 0002670 257.5694 102.5167 14.99302058 22094,6947.189,96.045,570.908,567.199,0.0
56469.0,STARLINK-5518,PAYLOAD,2023-09-27 05:51:45,14.99304079,0.0002644,70.0006,219.9253,260.1768,99.9093,4.7941e-05,4.93e-06,0.0,0 STARLINK-5518,1 56469U 23064X   23270.24428037  .00000493  00000-0  47941-4 0  9994,2 56469  70.0006 219.9253 0002644 260.1768  99.9093 14.99304079 21752,6947.182,96.045,570.884,567.21,0.0
56469.0,STARLINK-5518,PAYLOAD,2023-09-28 02:40:43,14.99288905,0.0002583,70.0005,217.735,266.8952,93.1912,-3.5882e-05,-5.33e-06,0.0,0 STARLINK-5518,1 56469U 23064X   23271.11161286 -.00000533  00000-0 -35882-4 0  9999,2 56469  70.0005 217.7350 0002583 266.8952  93.1912 14.99288905 22245,6947.229,96.046,570.889,567.3,0.0
56469.0,STARLINK-5518,PAYLOAD,2023-09-28 05:52:52,14.99289146,0.0002588,70.0005,217.3982,267.2453,92.8411,-3.382e-05,-5.07e-06,0.0,0 STARLINK-5518,1 56469U 23064X   23271.24504714 -.00000507  00000-0 -33820-4 0  9991,2 56469  70.0005 217.3982 0002588 267.2453  92.8411 14.99289146 21908,6947.228,96.046,570.891,567.295,0.0
56469.0,STARLINK-5518,PAYLOAD,2023-09-28 21:53:34,14.99304424,0.0002766,69.9999,215.7128,268.9161,91.1682,-7.9958e-07,-1.04e-06,0.0,0 STARLINK-5518,1 56469U 23064X   23271.91220577 -.00000104  00000-0 -79958-6 0  9994,2 56469  69.9999 215.7128 0002766 268.9161  91.1682 14.99304424 22004,6947.181,96.045,570.968,567.125,0.0
56469.0,STARLINK-5518,PAYLOAD,2023-09-29 05:53:55,14.99308545,0.0002714,70.0002,214.871,269.4842,90.6006,4.9605e-05,5.13e-06,0.0,0 STARLINK-5518,1 56469U 23064X   23272.24578486  .00000513  00000-0  49605-4 0  9992,2 56469  70.0002 214.8710 0002714 269.4842  90.6006 14.99308545 22051,6947.168,96.044,570.919,567.148,0.0
56469.0,STARLINK-5518,PAYLOAD,2023-09-30 04:18:56,14.99303444,0.0002731,70.0008,212.5132,267.5363,92.5484,0.00019009,2.233e-05,0.0,0 STARLINK-5518,1 56469U 23064X   23273.17981607  .00002233  00000-0  19009-3 0  9993,2 56469  70.0008 212.5132 0002731 267.5363  92.5484 14.99303444 22555,6947.184,96.045,570.947,567.152,0.0
56469.0,STARLINK-5518,PAYLOAD,2023-09-30 13:55:22,14.99300535,0.0002145,70.0019,211.5035,290.655,69.438,8.2057e-05,9.1e-06,0.0,0 STARLINK-5518,1 56469U 23064X   23273.58012399  .00000910  00000-0  82057-4 0  9995,2 56469  70.0019 211.5035 0002145 290.6550  69.4380 14.99300535 22615,6947.193,96.045,570.548,567.568,0.0
56469.0,STARLINK-5518,PAYLOAD,2023-10-01 05:56:06,14.99299731,0.0002701,70.0004,209.8197,267.6919,92.3931,-0.00011095,-1.451e-05,0.0,0 STARLINK-5518,1 56469U 23064X   23274.24729456 -.00001451  00000-0 -11095-3 0  9994,2 56469  70.0004 209.8197 0002701 267.6919  92.3931 14.99299731 22352,6947.196,96.045,570.937,567.184,0.0
56469.0,STARLINK-5518,PAYLOAD,2023-10-01 20:20:45,14.99300957,0.000241,70.0002,208.3035,242.1557,117.9359,-8.8773e-05,-1.18e-05,0.0,0 STARLINK-5518,1 56469U 23064X   23274.84774347 -.00001180  00000-0 -88773-4 0  9996,2 56469  70.0002 208.3035 0002410 242.1557 117.9359 14.99300957 22449,6947.192,96.045,570.731,567.383,0.0
56469.0,STARLINK-5518,PAYLOAD,2023-10-02 05:57:10,14.99306047,0.0002343,70.0005,207.2909,251.5374,108.5531,1.6391e-08,-9.4e-07,0.0,0 STARLINK-5518,1 56469U 23064X   23275.24803859 -.00000094  00000-0  16391-7 0  9994,2 56469  70.0005 207.2909 0002343 251.5374 108.5531 14.99306047 22866,6947.176,96.044,570.669,567.413,0.0
56469.0,STARLINK-5518,PAYLOAD,2023-10-02 20:21:49,14.9929417,0.0002793,70.0004,205.7749,274.0623,86.0217,0.00011489,1.312e-05,0.0,0 STARLINK-5518,1 56469U 23064X   23275.84849346  .00001312  00000-0  11489-3 0  9993,2 56469  70.0004 205.7749 0002793 274.0623  86.0217 14.99294170 22950,6947.213,96.045,571.018,567.138,0.0
56469.0,STARLINK-5518,PAYLOAD,2023-10-03 12:22:32,14.99340913,0.0002443,70.0022,204.0888,284.95,75.1389,-0.00078127,-9.65e-05,0.0,0 STARLINK-5518,1 56469U 23064X   23276.51565447 -.00009650  00000-0 -78127-3 0  9992,2 56469  70.0022 204.0888 0002443 284.9500  75.1389 14.99340913 23050,6947.068,96.042,570.631,567.236,0.0
56469.0,STARLINK-5518,PAYLOAD,2023-10-03 20:22:55,14.99296907,0.0002688,70.0004,203.2479,269.5475,90.5376,-6.4237e-05,-8.8e-06,0.0,0 STARLINK-5518,1 56469U 23064X   23276.84925077 -.00000880  00000-0 -64237-4 0  9991,2 56469  70.0004 203.2479 0002688 269.5475  90.5376 14.99296907 22743,6947.204,96.045,570.937,567.202,0.0
56469.0,STARLINK-5518,PAYLOAD,2023-10-04 12:23:38,14.99304712,0.0002802,70.0002,201.5626,274.6053,85.4786,-4.4217e-05,-6.35e-06,0.0,0 STARLINK-5518,1 56469U 23064X   23277.51641335 -.00000635  00000-0 -44217-4 0  9992,2 56469  70.0002 201.5626 0002802 274.6053  85.4786 14.99304712 22846,6947.18,96.045,570.992,567.099,0.0
56469.0,STARLINK-5518,PAYLOAD,2023-10-04 22:00:04,14.99297758,0.0002774,70.0004,200.552,272.6006,87.4836,2.2923e-05,1.87e-06,0.0,0 STARLINK-5518,1 56469U 23064X   23277.91671669  .00000187  00000-0  22923-4 0  9999,2 56469  70.0004 200.5520 0002774 272.6006  87.4836 14.99297758 22900,6947.202,96.045,570.994,567.14,0.0
56469.0,STARLINK-5518,PAYLOAD,2023-10-05 12:24:43,14.99303456,0.0002894,70.0001,199.0353,270.0997,89.9831,-7.456e-05,-1.006e-05,0.0,0 STARLINK-5518,1 56469U 23064X   23278.51716484 -.00001006  00000-0 -74560-4 0  9998,2 56469  70.0001 199.0353 0002894 270.0997  89.9831 14.99303456 22991,6947.184,96.045,571.06,567.039,0.0
56469.0,STARLINK-5518,PAYLOAD,2023-10-05 20:25:04,14.99295253,0.0002883,70.0001,198.1925,273.1828,86.9002,3.3085e-05,3.11e-06,0.0,0 STARLINK-5518,1 56469U 23064X   23278.85075207  .00000311  00000-0  33085-4 0  9999,2 56469  70.0001 198.1925 0002883 273.1828  86.9002 14.99295253 23400,6947.21,96.045,571.077,567.072,0.0
56469.0,STARLINK-5518,PAYLOAD,2023-10-05 22:01:09,14.99294903,0.0002881,70.0,198.024,273.1809,86.9021,1.9315e-05,1.42e-06,0.0,0 STARLINK-5518,1 56469U 23064X   23278.91746971  .00000142  00000-0  19315-4 0  9991,2 56469  70.0000 198.0240 0002881 273.1809  86.9021 14.99294903 23058,6947.211,96.045,571.077,567.074,0.0
56469.0,STARLINK-5518,PAYLOAD,2023-10-06 12:25:48,14.99289647,0.0003116,69.9997,196.5079,271.6423,88.4379,-4.9628e-05,-7.01e-06,0.0,0 STARLINK-5518,1 56469U 23064X   23279.51792764 -.00000701  00000-0 -49628-4 0  9992,2 56469  69.9997 196.5079 0003116 271.6423  88.4379 14.99289647 23142,6947.227,96.045,571.257,566.927,0.0
56469.0,STARLINK-5518,PAYLOAD,2023-10-06 22:02:14,14.99293004,0.0003098,69.9997,195.497,271.5492,88.5312,-2.396e-05,-3.87e-06,0.0,0 STARLINK-5518,1 56469U 23064X   23279.91822777 -.00000387  00000-0 -23960-4 0  9995,2 56469  69.9997 195.4970 0003098 271.5492  88.5312 14.99293004 23201,6947.216,96.045,571.234,566.929,0.0
